IRIDIUM 116             
1 43072U 17083C   24086.06289826  .00000886  00000+0  30907-3 0  9999
2 43072  86.3931 301.8461 0002053  82.6343 277.5086 14.34223815327625
IRIDIUM 130             
1 43073U 17083D   24085.89165236  .00000877  00000+0  30596-3 0  9992
2 43073  86.3940 302.1144 0002306  89.5241 270.6219 14.34222165327542
IRIDIUM 151             
1 43074U 17083E   24085.86628171 -.00000006  00000+0 -91746-5 0  9994
2 43074  86.3932 301.9672 0001599  89.7603 270.3776 14.34218299327564
IRIDIUM 134             
1 43075U 17083F   24086.04387426  .00000141  00000+0  43122-4 0  9993
2 43075  86.3934 301.8902 0002330  88.4993 271.6470 14.34219722327550
IRIDIUM 141             
1 43077U 17083H   24086.11997756  .00000874  00000+0  30503-3 0  9997
2 43077  86.3932 301.8120 0002079  89.3874 270.7560 14.34225541327635
